[{"OBJECT_NAME":"STARLINK-5464","OBJECT_ID":"2022-175A","EPOCH":"2026-03-09T22:27:08.075232","MEAN_MOTION":15.08835229,"ECCENTRICITY":0.00012811,"INCLINATION":53.218,"RA_OF_ASC_NODE":38.2078,"ARG_OF_PERICENTER":90.2925,"MEAN_ANOMALY":269.8214,"EPHEMERIS_TYPE":0,"CLASSIFICATION_TYPE":"U","NORAD_CAT_ID":54758,"ELEMENT_SET_NO":999,"REV_AT_EPOCH":18002,"BSTAR":1.1991324e-5,"MEAN_MOTION_DOT":-9.7e-7,"MEAN_MOTION_DDOT":0},{"OBJECT_NAME":"FENGYUN 1C DEB","OBJECT_ID":"1999-025BNW","EPOCH":"2026-03-06T10:01:07.743936","MEAN_MOTION":15.11996262,"ECCENTRICITY":0.00143439,"INCLINATION":98.7438,"RA_OF_ASC_NODE":239.2093,"ARG_OF_PERICENTER":346.0612,"MEAN_ANOMALY":44.2284,"EPHEMERIS_TYPE":0,"CLASSIFICATION_TYPE":"U","NORAD_CAT_ID":31288,"ELEMENT_SET_NO":999,"REV_AT_EPOCH":98814,"BSTAR":0.0072973407,"MEAN_MOTION_DOT":0.00127645,"MEAN_MOTION_DDOT":0}]
